<?xml version="1.0" encoding="UTF-8"?>
<kml xmlns="http://www.opengis.net/kml/2.2"><Document><name>林班57 森林簿記載区画（宇陀市菟田野上芳野）</name>
<Style id="lot"><LineStyle><color>ff0000dd</color><width>3</width></LineStyle><PolyStyle><color>400000ff</color></PolyStyle></Style>
<Folder><name>小班ル</name>
<Placemark><name>ル9</name><description>林班57 小班ル 施業番号9　森林簿面積 0.06 ha</description><styleUrl>#lot</styleUrl><Polygon><outerBoundaryIs><LinearRing><coordinates>136.0167850,34.4653565,0 136.0167085,34.4653000,0 136.0166940,34.4652316,0 136.0166593,34.4652090,0 136.0166235,34.4650894,0 136.0166646,34.4650663,0 136.0167405,34.4650771,0 136.0168584,34.4651447,0 136.0168874,34.4652701,0 136.0167850,34.4653565,0</coordinates></LinearRing></outerBoundaryIs></Polygon></Placemark>
<Placemark><name>ル15</name><description>林班57 小班ル 施業番号15　森林簿面積 0.22 ha　※概略</description><styleUrl>#lot</styleUrl><Polygon><outerBoundaryIs><LinearRing><coordinates>136.0173075,34.4677048,0 136.0172310,34.4676483,0 136.0170927,34.4676036,0 136.0170301,34.4675527,0 136.0169680,34.4675475,0 136.0168018,34.4674745,0 136.0168210,34.4673374,0 136.0168821,34.4672570,0 136.0170303,34.4669533,0 136.0170293,34.4668676,0 136.0170016,34.4668507,0 136.0169050,34.4668457,0 136.0168366,34.4668862,0 136.0164998,34.4669687,0 136.0163825,34.4669524,0 136.0163128,34.4668844,0 136.0163192,34.4668387,0 136.0163735,34.4667641,0 136.0164422,34.4667464,0 136.0164761,34.4666948,0 136.0165518,34.4666885,0 136.0167024,34.4665960,0 136.0166993,34.4663220,0 136.0166366,34.4662597,0 136.0166559,34.4661340,0 136.0168034,34.4657732,0 136.0168440,34.4657044,0 136.0168989,34.4656811,0 136.0169893,34.4657546,0 136.0170806,34.4659138,0 136.0171854,34.4660386,0 136.0172952,34.4659978,0 136.0173990,34.4660370,0 136.0174008,34.4661969,0 136.0174574,34.4663278,0 136.0174729,34.4664818,0 136.0173976,34.4665223,0 136.0173854,34.4666709,0 136.0174207,34.4667391,0 136.0174554,34.4667617,0 136.0174558,34.4668016,0 136.0174216,34.4668247,0 136.0174371,34.4669731,0 136.0175351,34.4671093,0 136.0175514,34.4673376,0 136.0175334,34.4675718,0 136.0175131,34.4676062,0 136.0173075,34.4677048,0</coordinates></LinearRing></outerBoundaryIs></Polygon></Placemark>
<Placemark><name>ル16</name><description>林班57 小班ル 施業番号16　森林簿面積 4.3 ha</description><styleUrl>#lot</styleUrl><Polygon><outerBoundaryIs><LinearRing><coordinates>136.0162885,34.4702473,0 136.0162121,34.4701908,0 136.0162314,34.4700651,0 136.0161818,34.4699512,0 136.0161596,34.4698144,0 136.0161971,34.4694659,0 136.0162175,34.4694429,0 136.0162498,34.4692485,0 136.0162541,34.4690201,0 136.0161846,34.4689635,0 136.0161086,34.4689527,0 136.0159701,34.4688909,0 136.0159145,34.4688457,0 136.0158932,34.4687887,0 136.0159055,34.4686630,0 136.0159665,34.4685655,0 136.0159435,34.4683602,0 136.0159639,34.4683372,0 136.0159606,34.4680403,0 136.0160403,34.4677714,0 136.0161892,34.4675362,0 136.0164095,34.4675174,0 136.0164442,34.4675343,0 136.0164324,34.4677171,0 136.0164881,34.4677680,0 136.0168755,34.4678964,0 136.0169794,34.4679470,0 136.0170345,34.4679466,0 136.0171918,34.4678370,0 136.0172872,34.4677392,0 136.0174586,34.4676637,0 136.0174932,34.4676806,0 136.0174877,34.4678005,0 136.0174672,34.4678178,0 136.0174420,34.4680235,0 136.0173759,34.4682752,0 136.0172952,34.4684585,0 136.0172895,34.4685613,0 136.0172486,34.4685959,0 136.0172496,34.4686872,0 136.0172223,34.4687160,0 136.0172026,34.4687960,0 136.0171984,34.4690416,0 136.0171783,34.4690874,0 136.0171440,34.4691048,0 136.0169506,34.4690606,0 136.0168887,34.4690781,0 136.0166197,34.4690573,0 136.0165788,34.4690976,0 136.0165863,34.4691489,0 136.0166212,34.4691829,0 136.0167457,34.4692277,0 136.0171111,34.4692420,0 136.0171457,34.4692589,0 136.0171265,34.4693904,0 136.0171350,34.4695273,0 136.0171079,34.4695732,0 136.0171788,34.4697497,0 136.0172155,34.4699492,0 136.0171472,34.4700011,0 136.0169344,34.4700769,0 136.0167693,34.4701067,0 136.0164262,34.4702349,0 136.0162885,34.4702473,0</coordinates></LinearRing></outerBoundaryIs></Polygon></Placemark>
<Placemark><name>ル17</name><description>林班57 小班ル 施業番号17　森林簿面積 0.09 ha</description><styleUrl>#lot</styleUrl><Polygon><outerBoundaryIs><LinearRing><coordinates>136.0164687,34.4666492,0 136.0164607,34.4665465,0 136.0165153,34.4665004,0 136.0166668,34.4664936,0 136.0167014,34.4665104,0 136.0166886,34.4665962,0 136.0165310,34.4666716,0 136.0164687,34.4666492,0</coordinates></LinearRing></outerBoundaryIs></Polygon></Placemark>
<Placemark><name>ル19</name><description>林班57 小班ル 施業番号19　森林簿面積 0.05 ha　※概略</description><styleUrl>#lot</styleUrl><Polygon><outerBoundaryIs><LinearRing><coordinates>136.0176143,34.4668004,0 136.0175728,34.4667836,0 136.0175366,34.4666355,0 136.0175406,34.4663728,0 136.0174698,34.4662078,0 136.0174747,34.4660308,0 136.0174324,34.4659454,0 136.0172720,34.4657697,0 136.0172784,34.4657296,0 136.0173814,34.4657003,0 136.0174299,34.4657228,0 136.0174865,34.4658480,0 136.0176617,34.4661093,0 136.0176422,34.4662179,0 136.0176736,34.4665602,0 136.0177435,34.4666453,0 136.0177509,34.4666967,0 136.0176143,34.4668004,0</coordinates></LinearRing></outerBoundaryIs></Polygon></Placemark>
<Placemark><name>ル20</name><description>林班57 小班ル 施業番号20　森林簿面積 0.77 ha　※概略</description><styleUrl>#lot</styleUrl><Polygon><outerBoundaryIs><LinearRing><coordinates>136.0172497,34.4699261,0 136.0172080,34.4698979,0 136.0171926,34.4697496,0 136.0171423,34.4695672,0 136.0171591,34.4692246,0 136.0174132,34.4691427,0 136.0174688,34.4691880,0 136.0174697,34.4692622,0 136.0174974,34.4692791,0 136.0174977,34.4693077,0 136.0175533,34.4693472,0 136.0175554,34.4695299,0 136.0175013,34.4696216,0 136.0174683,34.4697589,0 136.0174000,34.4698108,0 136.0173381,34.4698227,0 136.0173045,34.4698972,0 136.0172497,34.4699261,0</coordinates></LinearRing></outerBoundaryIs></Polygon></Placemark>
<Placemark><name>ル21</name><description>林班57 小班ル 施業番号21　森林簿面積 0.72 ha</description><styleUrl>#lot</styleUrl><Polygon><outerBoundaryIs><LinearRing><coordinates>136.0171233,34.4678718,0 136.0170683,34.4678836,0 136.0170412,34.4679237,0 136.0169862,34.4679356,0 136.0164811,34.4677510,0 136.0164390,34.4676885,0 136.0164579,34.4675285,0 136.0164163,34.4675060,0 136.0162303,34.4675131,0 136.0161957,34.4674962,0 136.0161467,34.4674280,0 136.0160479,34.4672233,0 136.0160467,34.4671148,0 136.0161003,34.4669831,0 136.0161891,34.4669139,0 136.0162922,34.4668903,0 136.0163966,34.4669751,0 136.0165000,34.4669801,0 136.0167817,34.4669095,0 136.0169066,34.4669885,0 136.0169757,34.4669994,0 136.0169829,34.4670336,0 136.0168072,34.4673375,0 136.0167806,34.4674290,0 136.0167883,34.4674975,0 136.0169335,34.4675420,0 136.0169614,34.4675704,0 136.0170095,34.4675586,0 136.0170861,34.4676265,0 136.0171481,34.4676261,0 136.0172381,34.4676654,0 136.0172661,34.4676994,0 136.0172667,34.4677565,0 136.0171233,34.4678718,0</coordinates></LinearRing></outerBoundaryIs></Polygon></Placemark>
<Placemark><name>ル22</name><description>林班57 小班ル 施業番号22　森林簿面積 0.06 ha</description><styleUrl>#lot</styleUrl><Polygon><outerBoundaryIs><LinearRing><coordinates>136.0171383,34.4692133,0 136.0171041,34.4692307,0 136.0167594,34.4692218,0 136.0166210,34.4691715,0 136.0165926,34.4690975,0 136.0166337,34.4690686,0 136.0167439,34.4690678,0 136.0170753,34.4691224,0 136.0171377,34.4691562,0 136.0171383,34.4692133,0</coordinates></LinearRing></outerBoundaryIs></Polygon></Placemark>
</Folder>
<Folder><name>小班オ</name>
<Placemark><name>オ1</name><description>林班57 小班オ 施業番号1　森林簿面積 1.2 ha</description><styleUrl>#lot</styleUrl><Polygon><outerBoundaryIs><LinearRing><coordinates>136.0165152,34.4714103,0 136.0164735,34.4713821,0 136.0164425,34.4710740,0 136.0163989,34.4708688,0 136.0163710,34.4708462,0 136.0163486,34.4706865,0 136.0163277,34.4706695,0 136.0163273,34.4706295,0 136.0163684,34.4706121,0 136.0163751,34.4705892,0 136.0162917,34.4705328,0 136.0162550,34.4703332,0 136.0163440,34.4702755,0 136.0167357,34.4701812,0 136.0169621,34.4700881,0 136.0170174,34.4701048,0 136.0171690,34.4701037,0 136.0172107,34.4701319,0 136.0172257,34.4702403,0 136.0172609,34.4703085,0 136.0172486,34.4704399,0 136.0172903,34.4704739,0 136.0172992,34.4706508,0 136.0173341,34.4706962,0 136.0173958,34.4712781,0 136.0168870,34.4713790,0 136.0165152,34.4714103,0</coordinates></LinearRing></outerBoundaryIs></Polygon></Placemark>
<Placemark><name>オ3</name><description>林班57 小班オ 施業番号3　森林簿面積 0.04 ha</description><styleUrl>#lot</styleUrl><Polygon><outerBoundaryIs><LinearRing><coordinates>136.0174460,34.4714490,0 136.0174306,34.4713121,0 136.0174649,34.4712947,0 136.0176097,34.4712993,0 136.0176387,34.4714304,0 136.0175976,34.4714536,0 136.0174460,34.4714490,0</coordinates></LinearRing></outerBoundaryIs></Polygon></Placemark>
<Placemark><name>オ4</name><description>林班57 小班オ 施業番号4　森林簿面積 0.6 ha</description><styleUrl>#lot</styleUrl><Polygon><outerBoundaryIs><LinearRing><coordinates>136.0163043,34.4722683,0 136.0163005,34.4719257,0 136.0163953,34.4717766,0 136.0164634,34.4717076,0 136.0164756,34.4715705,0 136.0164478,34.4715478,0 136.0164542,34.4715021,0 136.0164885,34.4714904,0 136.0165784,34.4715126,0 136.0166687,34.4715804,0 136.0169315,34.4716584,0 136.0171512,34.4715882,0 136.0172549,34.4716160,0 136.0174134,34.4716205,0 136.0174619,34.4716430,0 136.0174901,34.4716999,0 136.0174846,34.4718198,0 136.0174159,34.4718431,0 136.0171152,34.4720681,0 136.0168958,34.4721668,0 136.0168064,34.4721789,0 136.0166692,34.4722370,0 136.0164905,34.4722783,0 136.0163389,34.4722851,0 136.0163043,34.4722683,0</coordinates></LinearRing></outerBoundaryIs></Polygon></Placemark>
<Placemark><name>オ6</name><description>林班57 小班オ 施業番号6　森林簿面積 0.08 ha</description><styleUrl>#lot</styleUrl><Polygon><outerBoundaryIs><LinearRing><coordinates>136.0175825,34.4719504,0 136.0175409,34.4719278,0 136.0175404,34.4718822,0 136.0174985,34.4718311,0 136.0175040,34.4717112,0 136.0175588,34.4716765,0 136.0176550,34.4716529,0 136.0176896,34.4716698,0 136.0177055,34.4718524,0 136.0175825,34.4719504,0</coordinates></LinearRing></outerBoundaryIs></Polygon></Placemark>
<Placemark><name>オ7</name><description>林班57 小班オ 施業番号7　森林簿面積 0.62 ha</description><styleUrl>#lot</styleUrl><Polygon><outerBoundaryIs><LinearRing><coordinates>136.0165052,34.4729804,0 136.0163438,34.4727190,0 136.0163432,34.4726676,0 136.0163840,34.4726159,0 136.0162873,34.4725995,0 136.0163005,34.4725423,0 136.0162658,34.4725197,0 136.0162497,34.4723143,0 136.0163666,34.4722906,0 136.0165527,34.4722949,0 136.0166074,34.4722546,0 136.0169097,34.4721724,0 136.0171154,34.4720795,0 136.0174092,34.4718603,0 136.0174573,34.4718428,0 136.0175056,34.4718539,0 136.0176190,34.4721271,0 136.0174681,34.4721910,0 136.0173244,34.4722834,0 136.0172351,34.4723127,0 136.0172011,34.4723472,0 136.0171948,34.4724043,0 136.0171259,34.4724048,0 136.0170987,34.4724336,0 136.0169819,34.4724687,0 136.0166217,34.4729167,0 136.0166016,34.4729683,0 136.0165605,34.4729914,0 136.0165052,34.4729804,0</coordinates></LinearRing></outerBoundaryIs></Polygon></Placemark>
<Placemark><name>オ8</name><description>林班57 小班オ 施業番号8　森林簿面積 0.06 ha</description><styleUrl>#lot</styleUrl><Polygon><outerBoundaryIs><LinearRing><coordinates>136.0179441,34.4722331,0 136.0178619,34.4722794,0 136.0178001,34.4722970,0 136.0177586,34.4722859,0 136.0176886,34.4721894,0 136.0176601,34.4721039,0 136.0177218,34.4720749,0 136.0177563,34.4720861,0 136.0178467,34.4721596,0 136.0179090,34.4721763,0 136.0179437,34.4722046,0 136.0179441,34.4722331,0</coordinates></LinearRing></outerBoundaryIs></Polygon></Placemark>
<Placemark><name>オ9</name><description>林班57 小班オ 施業番号9　森林簿面積 0.28 ha</description><styleUrl>#lot</styleUrl><Polygon><outerBoundaryIs><LinearRing><coordinates>136.0172355,34.4729635,0 136.0171939,34.4729410,0 136.0172148,34.4723471,0 136.0174682,34.4722024,0 136.0176329,34.4721384,0 136.0176675,34.4721553,0 136.0177029,34.4722406,0 136.0177657,34.4723030,0 136.0177597,34.4723829,0 136.0176297,34.4724696,0 136.0174539,34.4727735,0 136.0173993,34.4728138,0 136.0173383,34.4729056,0 136.0172355,34.4729635,0</coordinates></LinearRing></outerBoundaryIs></Polygon></Placemark>
<Placemark><name>オ10</name><description>林班57 小班オ 施業番号10　森林簿面積 0.38 ha</description><styleUrl>#lot</styleUrl><Polygon><outerBoundaryIs><LinearRing><coordinates>136.0168197,34.4733720,0 136.0167573,34.4733325,0 136.0167842,34.4732752,0 136.0167083,34.4732643,0 136.0166870,34.4732074,0 136.0166382,34.4731621,0 136.0165819,34.4730598,0 136.0165813,34.4730027,0 136.0168936,34.4725836,0 136.0169686,34.4725145,0 136.0169684,34.4724916,0 136.0171606,34.4724274,0 136.0171953,34.4724443,0 136.0171797,34.4729011,0 136.0171946,34.4729981,0 136.0171404,34.4730841,0 136.0170718,34.4731132,0 136.0170721,34.4731360,0 136.0169428,34.4732797,0 136.0168197,34.4733720,0</coordinates></LinearRing></outerBoundaryIs></Polygon></Placemark>
<Placemark><name>オ12</name><description>林班57 小班オ 施業番号12　森林簿面積 0.46 ha</description><styleUrl>#lot</styleUrl><Polygon><outerBoundaryIs><LinearRing><coordinates>136.0168835,34.4735256,0 136.0168273,34.4734347,0 136.0168268,34.4733890,0 136.0171542,34.4730840,0 136.0172083,34.4729923,0 136.0172906,34.4729574,0 136.0173520,34.4729055,0 136.0174130,34.4728137,0 136.0174677,34.4727734,0 136.0176435,34.4724694,0 136.0177188,34.4724232,0 136.0177534,34.4724344,0 136.0177816,34.4724912,0 136.0177832,34.4726397,0 136.0178185,34.4727136,0 136.0178199,34.4728392,0 136.0178410,34.4728733,0 136.0178015,34.4730392,0 136.0177122,34.4730684,0 136.0174866,34.4732299,0 136.0172206,34.4734774,0 136.0169801,34.4735363,0 136.0168835,34.4735256,0</coordinates></LinearRing></outerBoundaryIs></Polygon></Placemark>
<Placemark><name>オ13</name><description>林班57 小班オ 施業番号13　森林簿面積 0.15 ha</description><styleUrl>#lot</styleUrl><Polygon><outerBoundaryIs><LinearRing><coordinates>136.0179601,34.4736603,0 136.0179044,34.4736150,0 136.0178685,34.4734840,0 136.0178155,34.4730562,0 136.0178349,34.4729419,0 136.0178894,34.4728901,0 136.0179516,34.4729010,0 136.0180003,34.4729463,0 136.0180162,34.4731346,0 136.0180372,34.4731630,0 136.0180399,34.4734028,0 136.0180683,34.4734825,0 136.0180698,34.4736138,0 136.0179601,34.4736603,0</coordinates></LinearRing></outerBoundaryIs></Polygon></Placemark>
<Placemark><name>オ14</name><description>林班57 小班オ 施業番号14　森林簿面積 0.71 ha</description><styleUrl>#lot</styleUrl><Polygon><outerBoundaryIs><LinearRing><coordinates>136.0172713,34.4743106,0 136.0172159,34.4742825,0 136.0171804,34.4741914,0 136.0171176,34.4741233,0 136.0170959,34.4740265,0 136.0170327,34.4739242,0 136.0169963,34.4737532,0 136.0172286,34.4735744,0 136.0172003,34.4735118,0 136.0173570,34.4733508,0 136.0177055,34.4730856,0 136.0177743,34.4730679,0 136.0178159,34.4730905,0 136.0178547,34.4734841,0 136.0178907,34.4736151,0 136.0179466,34.4736832,0 136.0179471,34.4737289,0 136.0178648,34.4737695,0 136.0175849,34.4740000,0 136.0173263,34.4742931,0 136.0172713,34.4743106,0</coordinates></LinearRing></outerBoundaryIs></Polygon></Placemark>
<Placemark><name>オ15</name><description>林班57 小班オ 施業番号15　森林簿面積 0.05 ha</description><styleUrl>#lot</styleUrl><Polygon><outerBoundaryIs><LinearRing><coordinates>136.0180803,34.4739334,0 136.0180318,34.4739110,0 136.0179895,34.4738256,0 136.0179889,34.4737743,0 136.0179611,34.4737516,0 136.0179603,34.4736774,0 136.0180563,34.4736367,0 136.0181048,34.4736592,0 136.0181052,34.4736992,0 136.0181616,34.4738072,0 136.0181420,34.4739044,0 136.0180803,34.4739334,0</coordinates></LinearRing></outerBoundaryIs></Polygon></Placemark>
<Placemark><name>オ16</name><description>林班57 小班オ 施業番号16　森林簿面積 0.37 ha</description><styleUrl>#lot</styleUrl><Polygon><outerBoundaryIs><LinearRing><coordinates>136.0174885,34.4746230,0 136.0174331,34.4746006,0 136.0173069,34.4744131,0 136.0172853,34.4743276,0 136.0173947,34.4742469,0 136.0176533,34.4739538,0 136.0178581,34.4737867,0 136.0179405,34.4737575,0 136.0179751,34.4737744,0 136.0179757,34.4738257,0 136.0180459,34.4739337,0 136.0180413,34.4741450,0 136.0180209,34.4741622,0 136.0179882,34.4743223,0 136.0178510,34.4743748,0 136.0175297,34.4746112,0 136.0174885,34.4746230,0</coordinates></LinearRing></outerBoundaryIs></Polygon></Placemark>
<Placemark><name>オ17</name><description>林班57 小班オ 施業番号17　森林簿面積 0.5 ha</description><styleUrl>#lot</styleUrl><Polygon><outerBoundaryIs><LinearRing><coordinates>136.0175069,34.4750396,0 136.0174760,34.4747373,0 136.0174888,34.4746515,0 136.0178443,34.4743919,0 136.0179403,34.4743513,0 136.0180024,34.4743565,0 136.0180582,34.4744189,0 136.0180657,34.4744702,0 136.0181145,34.4745212,0 136.0181151,34.4745726,0 136.0181428,34.4745895,0 136.0181731,34.4748291,0 136.0181603,34.4749205,0 136.0181884,34.4749660,0 136.0181891,34.4750288,0 136.0181548,34.4750462,0 136.0175069,34.4750396,0</coordinates></LinearRing></outerBoundaryIs></Polygon></Placemark>
<Placemark><name>オ18</name><description>林班57 小班オ 施業番号18　森林簿面積 0.05 ha　※手動推定</description><styleUrl>#lot</styleUrl><Polygon><outerBoundaryIs><LinearRing><coordinates>136.0164734,34.4707598,0 136.0164932,34.4706797,0 136.0166441,34.4706158,0 136.0167821,34.4706261,0 136.0168721,34.4706711,0 136.0169002,34.4707109,0 136.0168871,34.4707795,0 136.0168394,34.4708198,0 136.0167295,34.4708549,0 136.0165915,34.4708445,0 136.0165362,34.4708221,0 136.0164734,34.4707598,0</coordinates></LinearRing></outerBoundaryIs></Polygon></Placemark>
<Placemark><name>オ19</name><description>林班57 小班オ 施業番号19　森林簿面積 0.19 ha</description><styleUrl>#lot</styleUrl><Polygon><outerBoundaryIs><LinearRing><coordinates>136.0164953,34.4714790,0 136.0165017,34.4714332,0 136.0165359,34.4714159,0 136.0168871,34.4713904,0 136.0172721,34.4713076,0 136.0173823,34.4713010,0 136.0174169,34.4713179,0 136.0174187,34.4714777,0 136.0171920,34.4715365,0 136.0171442,34.4715826,0 136.0170276,34.4716291,0 136.0169313,34.4716413,0 136.0168000,34.4716080,0 136.0167306,34.4715685,0 136.0166963,34.4715802,0 136.0166267,34.4715179,0 136.0164953,34.4714790,0</coordinates></LinearRing></outerBoundaryIs></Polygon></Placemark>
<Placemark><name>オ20</name><description>林班57 小班オ 施業番号20　森林簿面積 0.05 ha</description><styleUrl>#lot</styleUrl><Polygon><outerBoundaryIs><LinearRing><coordinates>136.0175175,34.4716825,0 136.0174759,34.4716600,0 136.0174601,34.4714831,0 136.0174944,34.4714658,0 136.0175840,34.4714651,0 136.0176464,34.4714989,0 136.0176616,34.4716301,0 136.0175175,34.4716825,0</coordinates></LinearRing></outerBoundaryIs></Polygon></Placemark>
</Folder>
<Folder><name>小班ワ</name>
<Placemark><name>ワ1</name><description>林班57 小班ワ 施業番号1　森林簿面積 0.65 ha　※図面上端で切れているため北側不完全</description><styleUrl>#lot</styleUrl><Polygon><outerBoundaryIs><LinearRing><coordinates>136.0186785,34.4750422,0 136.0182651,34.4750453,0 136.0182304,34.4750285,0 136.0182362,34.4749314,0 136.0182082,34.4748859,0 136.0182196,34.4746746,0 136.0181633,34.4745722,0 136.0181968,34.4744863,0 136.0180929,34.4744415,0 136.0180993,34.4744014,0 136.0180491,34.4742191,0 136.0181015,34.4739789,0 136.0181833,34.4738984,0 136.0182869,34.4739205,0 136.0184466,34.4740277,0 136.0186007,34.4742492,0 136.0186293,34.4743404,0 136.0186405,34.4747228,0 136.0186897,34.4748081,0 136.0187117,34.4749221,0 136.0187128,34.4750248,0 136.0186785,34.4750422,0</coordinates></LinearRing></outerBoundaryIs></Polygon></Placemark>
<Placemark><name>ワ5</name><description>林班57 小班ワ 施業番号5　森林簿面積 0.35 ha</description><styleUrl>#lot</styleUrl><Polygon><outerBoundaryIs><LinearRing><coordinates>136.0190232,34.4725961,0 136.0189821,34.4726192,0 136.0189132,34.4726198,0 136.0188024,34.4725692,0 136.0187474,34.4725810,0 136.0184020,34.4725094,0 136.0182849,34.4725160,0 136.0182295,34.4724936,0 136.0181097,34.4722547,0 136.0181022,34.4721977,0 136.0181915,34.4721742,0 136.0185161,34.4722345,0 136.0185986,34.4722168,0 136.0187303,34.4722900,0 136.0188060,34.4722780,0 136.0189719,34.4723224,0 136.0190067,34.4723564,0 136.0190359,34.4724990,0 136.0190232,34.4725961,0</coordinates></LinearRing></outerBoundaryIs></Polygon></Placemark>
<Placemark><name>ワ6</name><description>林班57 小班ワ 施業番号6　森林簿面積 0.25 ha　※概略</description><styleUrl>#lot</styleUrl><Polygon><outerBoundaryIs><LinearRing><coordinates>136.0193235,34.4729478,0 136.0192892,34.4729652,0 136.0192409,34.4729599,0 136.0189640,34.4728478,0 136.0188604,34.4728257,0 136.0187961,34.4726264,0 136.0188510,34.4726088,0 136.0189891,34.4726306,0 136.0190920,34.4725899,0 136.0192095,34.4726175,0 136.0192383,34.4727258,0 136.0193010,34.4727881,0 136.0192741,34.4728454,0 136.0193160,34.4728965,0 136.0193235,34.4729478,0</coordinates></LinearRing></outerBoundaryIs></Polygon></Placemark>
<Placemark><name>ワ7</name><description>林班57 小班ワ 施業番号7　森林簿面積 0.19 ha</description><styleUrl>#lot</styleUrl><Polygon><outerBoundaryIs><LinearRing><coordinates>136.0179000,34.4719880,0 136.0177612,34.4719034,0 136.0176600,34.4714816,0 136.0176593,34.4714188,0 136.0176935,34.4714015,0 136.0178450,34.4713946,0 136.0178797,34.4714115,0 136.0178743,34.4715485,0 136.0179031,34.4716511,0 136.0179733,34.4717705,0 136.0179738,34.4718104,0 136.0180155,34.4718444,0 136.0179342,34.4719706,0 136.0179000,34.4719880,0</coordinates></LinearRing></outerBoundaryIs></Polygon></Placemark>
<Placemark><name>ワ8</name><description>林班57 小班ワ 施業番号8　森林簿面積 0.74 ha</description><styleUrl>#lot</styleUrl><Polygon><outerBoundaryIs><LinearRing><coordinates>136.0191166,34.4723214,0 136.0190272,34.4723392,0 136.0189441,34.4722998,0 136.0187369,34.4722614,0 136.0185984,34.4722054,0 136.0185159,34.4722231,0 136.0183779,34.4722013,0 136.0183224,34.4721732,0 136.0182881,34.4721849,0 136.0182121,34.4721683,0 136.0181619,34.4719974,0 136.0180433,34.4718670,0 136.0179311,34.4716908,0 136.0178881,34.4715484,0 136.0178937,34.4714342,0 136.0179348,34.4714111,0 136.0181281,34.4714382,0 136.0181900,34.4714263,0 136.0182662,34.4714600,0 136.0187221,34.4715593,0 136.0188468,34.4716212,0 136.0188616,34.4717067,0 136.0188417,34.4717753,0 136.0188634,34.4718722,0 136.0189128,34.4719689,0 136.0189756,34.4720370,0 136.0189759,34.4720655,0 136.0190386,34.4721278,0 136.0191166,34.4723214,0</coordinates></LinearRing></outerBoundaryIs></Polygon></Placemark>
<Placemark><name>ワ9</name><description>林班57 小班ワ 施業番号9　森林簿面積 0.16 ha</description><styleUrl>#lot</styleUrl><Polygon><outerBoundaryIs><LinearRing><coordinates>136.0176934,34.4713900,0 136.0176518,34.4713675,0 136.0176446,34.4713390,0 136.0176494,34.4711506,0 136.0176056,34.4709397,0 136.0175891,34.4706943,0 136.0176645,34.4706595,0 136.0177472,34.4706589,0 136.0177818,34.4706757,0 136.0177845,34.4709155,0 136.0178512,34.4713318,0 136.0178448,34.4713718,0 136.0178105,34.4713892,0 136.0176934,34.4713900,0</coordinates></LinearRing></outerBoundaryIs></Polygon></Placemark>
<Placemark><name>ワ10</name><description>林班57 小班ワ 施業番号10　森林簿面積 0.3 ha</description><styleUrl>#lot</styleUrl><Polygon><outerBoundaryIs><LinearRing><coordinates>136.0181486,34.4714266,0 136.0178933,34.4714000,0 136.0178587,34.4713831,0 136.0178644,34.4712746,0 136.0178283,34.4711321,0 136.0177891,34.4707042,0 136.0178301,34.4706811,0 136.0181609,34.4706786,0 136.0181955,34.4706955,0 136.0181644,34.4709926,0 136.0181829,34.4714092,0 136.0181486,34.4714266,0</coordinates></LinearRing></outerBoundaryIs></Polygon></Placemark>
<Placemark><name>ワ11</name><description>林班57 小班ワ 施業番号11　森林簿面積 0.41 ha</description><styleUrl>#lot</styleUrl><Polygon><outerBoundaryIs><LinearRing><coordinates>136.0187289,34.4715478,0 136.0182660,34.4714485,0 136.0182036,34.4714148,0 136.0181782,34.4709925,0 136.0182096,34.4707182,0 136.0182505,34.4706836,0 136.0184092,34.4706939,0 136.0186242,34.4708235,0 136.0186607,34.4710060,0 136.0187098,34.4710798,0 136.0186904,34.4711884,0 136.0187112,34.4712054,0 136.0187199,34.4713652,0 136.0187631,34.4715304,0 136.0187289,34.4715478,0</coordinates></LinearRing></outerBoundaryIs></Polygon></Placemark>
<Placemark><name>ワ12</name><description>林班57 小班ワ 施業番号12　森林簿面積 0.04 ha</description><styleUrl>#lot</styleUrl><Polygon><outerBoundaryIs><LinearRing><coordinates>136.0176299,34.4706483,0 136.0175883,34.4706258,0 136.0175798,34.4704774,0 136.0176140,34.4704600,0 136.0176967,34.4704594,0 136.0177383,34.4704819,0 136.0177469,34.4706303,0 136.0177126,34.4706477,0 136.0176299,34.4706483,0</coordinates></LinearRing></outerBoundaryIs></Polygon></Placemark>
<Placemark><name>ワ13</name><description>林班57 小班ワ 施業番号13　森林簿面積 0.06 ha</description><styleUrl>#lot</styleUrl><Polygon><outerBoundaryIs><LinearRing><coordinates>136.0181881,34.4706498,0 136.0180989,34.4706791,0 136.0178093,34.4706698,0 136.0177677,34.4706473,0 136.0177524,34.4705047,0 136.0177866,34.4704873,0 136.0178624,34.4704867,0 136.0179040,34.4705035,0 136.0180556,34.4705081,0 136.0181736,34.4705814,0 136.0181881,34.4706498,0</coordinates></LinearRing></outerBoundaryIs></Polygon></Placemark>
<Placemark><name>ワ14</name><description>林班57 小班ワ 施業番号14　森林簿面積 0.06 ha</description><styleUrl>#lot</styleUrl><Polygon><outerBoundaryIs><LinearRing><coordinates>136.0177102,34.4704365,0 136.0175795,34.4704546,0 136.0175379,34.4704321,0 136.0175024,34.4703353,0 136.0175149,34.4702210,0 136.0176043,34.4702089,0 136.0176737,34.4702541,0 136.0177092,34.4703394,0 136.0177102,34.4704365,0</coordinates></LinearRing></outerBoundaryIs></Polygon></Placemark>
<Placemark><name>ワ15</name><description>林班57 小班ワ 施業番号15　森林簿面積 0.27 ha</description><styleUrl>#lot</styleUrl><Polygon><outerBoundaryIs><LinearRing><coordinates>136.0185587,34.4705100,0 136.0184912,34.4706361,0 136.0184365,34.4706708,0 136.0182435,34.4706723,0 136.0182089,34.4706554,0 136.0181874,34.4705813,0 136.0180970,34.4705135,0 136.0177381,34.4704648,0 136.0177227,34.4703165,0 136.0177776,34.4702990,0 136.0178743,34.4703211,0 136.0184260,34.4703512,0 136.0185436,34.4703960,0 136.0185649,34.4704472,0 136.0185587,34.4705100,0</coordinates></LinearRing></outerBoundaryIs></Polygon></Placemark>
<Placemark><name>ワ16</name><description>林班57 小班ワ 施業番号16　森林簿面積 0.09 ha　※手動推定</description><styleUrl>#lot</styleUrl><Polygon><outerBoundaryIs><LinearRing><coordinates>136.0175021,34.4703067,0 136.0173849,34.4703076,0 136.0173503,34.4702907,0 136.0173333,34.4700054,0 136.0173588,34.4698225,0 136.0173998,34.4697937,0 136.0175105,34.4698271,0 136.0175953,34.4700206,0 136.0175976,34.4702204,0 136.0175428,34.4702493,0 136.0175363,34.4702893,0 136.0175021,34.4703067,0</coordinates></LinearRing></outerBoundaryIs></Polygon></Placemark>
<Placemark><name>ワ17</name><description>林班57 小班ワ 施業番号17　森林簿面積 1.06 ha</description><styleUrl>#lot</styleUrl><Polygon><outerBoundaryIs><LinearRing><coordinates>136.0185362,34.4703503,0 136.0185088,34.4703620,0 136.0183017,34.4703293,0 136.0178742,34.4703096,0 136.0177293,34.4702879,0 136.0176527,34.4702257,0 136.0176370,34.4700488,0 136.0175804,34.4699236,0 136.0175725,34.4698323,0 136.0175028,34.4697586,0 136.0175828,34.4695183,0 136.0175731,34.4692671,0 136.0176407,34.4691524,0 136.0176750,34.4691408,0 136.0177925,34.4691684,0 136.0178756,34.4692078,0 136.0179313,34.4692587,0 136.0181384,34.4692857,0 136.0182355,34.4693421,0 136.0183807,34.4693867,0 136.0184994,34.4695285,0 136.0185074,34.4696255,0 136.0185498,34.4697165,0 136.0185379,34.4698822,0 136.0185041,34.4699452,0 136.0185051,34.4700309,0 136.0185331,34.4700706,0 136.0185408,34.4701448,0 136.0185362,34.4703503,0</coordinates></LinearRing></outerBoundaryIs></Polygon></Placemark>
<Placemark><name>ワ18</name><description>林班57 小班ワ 施業番号18　森林簿面積 0.02 ha</description><styleUrl>#lot</styleUrl><Polygon><outerBoundaryIs><LinearRing><coordinates>136.0175523,34.4692559,0 136.0175107,34.4692390,0 136.0174963,34.4691821,0 136.0174615,34.4691538,0 136.0174538,34.4690796,0 136.0174881,34.4690622,0 136.0176334,34.4691125,0 136.0175934,34.4692327,0 136.0175523,34.4692559,0</coordinates></LinearRing></outerBoundaryIs></Polygon></Placemark>
</Folder>
<Folder><name>小班カ</name>
<Placemark><name>カ1</name><description>林班57 小班カ 施業番号1　森林簿面積 0.9 ha　※概略</description><styleUrl>#lot</styleUrl><Polygon><outerBoundaryIs><LinearRing><coordinates>136.0175985,34.4690728,0 136.0174599,34.4690111,0 136.0174527,34.4689769,0 136.0174867,34.4689366,0 136.0174791,34.4688739,0 136.0175253,34.4686966,0 136.0175729,34.4686334,0 136.0175780,34.4684792,0 136.0177249,34.4680556,0 136.0177635,34.4678156,0 136.0177308,34.4673534,0 136.0177908,34.4671816,0 136.0177965,34.4670674,0 136.0176358,34.4668745,0 136.0176625,34.4668001,0 136.0177514,34.4667366,0 136.0177930,34.4667591,0 136.0178074,34.4668161,0 136.0179750,34.4670090,0 136.0180031,34.4670601,0 136.0180041,34.4671458,0 136.0179306,34.4673519,0 136.0179219,34.4678030,0 136.0179014,34.4678259,0 136.0178703,34.4681231,0 136.0178368,34.4682032,0 136.0177913,34.4684491,0 136.0177443,34.4685636,0 136.0176929,34.4688951,0 136.0176589,34.4689353,0 136.0176396,34.4690554,0 136.0175985,34.4690728,0</coordinates></LinearRing></outerBoundaryIs></Polygon></Placemark>
<Placemark><name>カ2</name><description>林班57 小班カ 施業番号2　森林簿面積 1.45 ha　※概略</description><styleUrl>#lot</styleUrl><Polygon><outerBoundaryIs><LinearRing><coordinates>136.0177031,34.4661147,0 136.0176475,34.4660751,0 136.0175843,34.4659728,0 136.0175697,34.4658987,0 136.0174860,34.4658080,0 136.0172191,34.4653590,0 136.0170865,34.4652058,0 136.0170652,34.4651489,0 136.0169540,34.4650698,0 136.0169247,34.4649102,0 136.0169038,34.4648932,0 136.0169085,34.4646991,0 136.0169352,34.4646246,0 136.0169694,34.4646015,0 136.0169620,34.4645502,0 136.0169822,34.4645101,0 136.0171055,34.4644407,0 136.0172017,34.4644228,0 136.0172363,34.4644340,0 136.0173897,34.4645927,0 136.0174749,34.4648147,0 136.0175236,34.4648600,0 136.0176152,34.4650363,0 136.0176920,34.4651328,0 136.0176951,34.4654011,0 136.0178058,34.4660568,0 136.0177031,34.4661147,0</coordinates></LinearRing></outerBoundaryIs></Polygon></Placemark>
<Placemark><name>カ3</name><description>林班57 小班カ 施業番号3　森林簿面積 0.5 ha　※概略</description><styleUrl>#lot</styleUrl><Polygon><outerBoundaryIs><LinearRing><coordinates>136.0182599,34.4684456,0 136.0181141,34.4683553,0 136.0181521,34.4680581,0 136.0181448,34.4674073,0 136.0181719,34.4673672,0 136.0181711,34.4672930,0 136.0182188,34.4672469,0 136.0183155,34.4672690,0 136.0183365,34.4672974,0 136.0183945,34.4675539,0 136.0183747,34.4676283,0 136.0183831,34.4677595,0 136.0182980,34.4681598,0 136.0183008,34.4684110,0 136.0182599,34.4684456,0</coordinates></LinearRing></outerBoundaryIs></Polygon></Placemark>
<Placemark><name>カ4</name><description>林班57 小班カ 施業番号4　森林簿面積 0.62 ha　※概略</description><styleUrl>#lot</styleUrl><Polygon><outerBoundaryIs><LinearRing><coordinates>136.0183882,34.4688271,0 136.0182289,34.4687541,0 136.0182146,34.4687142,0 136.0183081,34.4684452,0 136.0183118,34.4681597,0 136.0183969,34.4677594,0 136.0183885,34.4676282,0 136.0184083,34.4675538,0 136.0183506,34.4673202,0 136.0185358,34.4672503,0 136.0185705,34.4672671,0 136.0185847,34.4673013,0 136.0186097,34.4676893,0 136.0185824,34.4677181,0 136.0185908,34.4678436,0 136.0185238,34.4680211,0 136.0184986,34.4682268,0 136.0184582,34.4683128,0 136.0184610,34.4685639,0 136.0184346,34.4686612,0 136.0184293,34.4688097,0 136.0183882,34.4688271,0</coordinates></LinearRing></outerBoundaryIs></Polygon></Placemark>
<Placemark><name>カ5</name><description>林班57 小班カ 施業番号5　森林簿面積 0.78 ha</description><styleUrl>#lot</styleUrl><Polygon><outerBoundaryIs><LinearRing><coordinates>136.0182946,34.4672464,0 136.0182256,34.4672412,0 136.0181841,34.4672186,0 136.0181678,34.4670018,0 136.0181470,34.4669848,0 136.0180541,34.4666944,0 136.0179345,34.4664726,0 136.0179334,34.4663756,0 136.0178566,34.4662848,0 136.0178552,34.4661649,0 136.0178201,34.4661024,0 136.0178115,34.4659540,0 136.0177088,34.4654010,0 136.0177058,34.4651327,0 136.0175374,34.4648599,0 136.0174886,34.4648146,0 136.0174035,34.4645926,0 136.0173339,34.4645360,0 136.0173334,34.4644903,0 136.0174017,34.4644384,0 136.0174920,34.4645006,0 136.0175196,34.4645061,0 136.0175676,34.4644829,0 136.0176508,34.4645279,0 136.0176654,34.4646020,0 136.0177770,34.4647211,0 136.0178826,34.4649201,0 136.0179112,34.4650112,0 136.0178984,34.4651027,0 136.0179204,34.4652167,0 136.0179483,34.4652507,0 136.0180199,34.4654900,0 136.0179999,34.4655472,0 136.0180212,34.4656042,0 136.0180206,34.4661637,0 136.0180486,34.4662034,0 136.0180642,34.4663632,0 136.0181575,34.4666993,0 136.0183257,34.4669435,0 136.0183604,34.4669661,0 136.0183747,34.4670174,0 136.0183348,34.4671433,0 136.0183425,34.4672117,0 136.0182946,34.4672464,0</coordinates></LinearRing></outerBoundaryIs></Polygon></Placemark>
</Folder>
</Document></kml>